{"dragon": {"capsule": null, "mass_returned_kg": null, "mass_returned_lbs": null, "flight_time_sec": null, "manifest": null, "water_landing": null, "land_landing": null}, "name": "Starlink-8", "type": "Satellite", "reused": false, "launch": "5eb87d46ffd86e000604b389", "customers": ["SpaceX"], "norad_ids": [45730, 45731, 45732, 45733, 45734, 45735, 45736, 45737, 45738, 45739, 45740, 45741, 45742, 45743, 45744, 45745, 45746, 45747, 45748, 45749, 45750, 45751], "nationalities": ["United States"], "manufacturers": ["SpaceX"], "mass_kg": 15600, "mass_lbs": 34392, "orbit": "VLEO", "reference_system": "geocentric", "regime": "very-low-earth", "longitude": null, "semi_major_axis_km": 6925.355, "eccentricity": 0.0001514, "periapsis_km": 546.172, "apoapsis_km": 548.269, "inclination_deg": 53.056, "period_min": 95.592, "lifespan_years": null, "epoch": "2022-01-29T12:43:47.000Z", "mean_motion": 15.06397852, "raan": 131.0841, "arg_of_pericenter": 71.8615, "mean_anomaly": 288.2539, "id": "5eb0e4d1b6c3bb0006eeb258"}